NORAD_CAT_ID,OBJECT_NAME,OBJECT_TYPE,EPOCH,MEAN_MOTION,ECCENTRICITY,INCLINATION,RA_OF_ASC_NODE,ARG_OF_PERICENTER,MEAN_ANOMALY,BSTAR,MEAN_MOTION_DOT,MEAN_MOTION_DDOT,TLE_LINE0,TLE_LINE1,TLE_LINE2,SEMIMAJOR_AXIS,PERIOD,APOGEE,PERIGEE,DECAYED
54767.0,STARLINK-5472,PAYLOAD,2023-03-27 01:30:21,15.08877056,0.0001878,53.2155,206.2189,56.3453,303.7718,0.0010149,0.00015917,0.0,0 STARLINK-5472,1 54767U 22175K   23086.06274482  .00015917  00000-0  10149-2 0  9998,2 54767  53.2155 206.2189 0001878  56.3453 303.7718 15.08877056 14922,6917.767,95.435,540.931,538.333,0.0
54767.0,STARLINK-5472,PAYLOAD,2023-03-27 12:38:02,15.08865321,0.0001443,53.2164,204.1325,83.781,276.3346,0.00042072,6.419e-05,0.0,0 STARLINK-5472,1 54767U 22175K   23086.52641951  .00006419  00000-0  42072-3 0  9996,2 54767  53.2164 204.1325 0001443  83.7810 276.3346 15.08865321 14991,6917.803,95.436,540.666,538.67,0.0
54767.0,STARLINK-5472,PAYLOAD,2023-03-27 14:13:25,15.08859462,0.0001448,53.2167,203.8361,80.8457,279.2699,0.0020719,0.00032858,0.0,0 STARLINK-5472,1 54767U 22175K   23086.59266193  .00032858  00000-0  20719-2 0  9993,2 54767  53.2167 203.8361 0001448  80.8457 279.2699 15.08859462 17164,6917.821,95.436,540.688,538.684,0.0
54767.0,STARLINK-5472,PAYLOAD,2023-03-27 18:59:34,15.08887293,0.0001335,53.2162,202.9435,81.123,278.9913,0.0033238,0.00053078,0.0,0 STARLINK-5472,1 54767U 22175K   23086.79137648  .00053078  00000-0  33238-2 0  9994,2 54767  53.2162 202.9435 0001335  81.1230 278.9913 15.08887293 15031,6917.736,95.435,540.524,538.677,0.0
54767.0,STARLINK-5472,PAYLOAD,2023-03-28 07:42:39,15.08861799,0.0001666,53.215,200.5648,97.4087,262.7094,0.0023345,0.00037084,0.0,0 STARLINK-5472,1 54767U 22175K   23087.32129397  .00037084  00000-0  23345-2 0  9993,2 54767  53.2150 200.5648 0001666  97.4087 262.7094 15.08861799 15118,6917.814,95.436,540.831,538.526,0.0
54767.0,STARLINK-5472,PAYLOAD,2023-03-28 14:04:11,15.08875167,0.0001259,53.2166,199.3756,95.3559,264.7576,0.00097419,0.00015265,0.0,0 STARLINK-5472,1 54767U 22175K   23087.58624803  .00015265  00000-0  97419-3 0  9994,2 54767  53.2166 199.3756 0001259  95.3559 264.7576 15.08875167 17314,6917.773,95.435,540.509,538.767,0.0
54767.0,STARLINK-5472,PAYLOAD,2023-03-29 07:33:26,15.08864281,0.0001585,53.2161,196.1046,100.197,259.9201,0.0022858,0.00036303,0.0,0 STARLINK-5472,1 54767U 22175K   23088.31489163  .00036303  00000-0  22858-2 0  9994,2 54767  53.2161 196.1046 0001585 100.1970 259.9201 15.08864281 15268,6917.806,95.436,540.768,538.575,0.0
54767.0,STARLINK-5472,PAYLOAD,2023-03-29 12:19:36,15.08841818,0.0001106,53.2163,195.2122,70.5954,289.5158,0.0023981,0.00038086,0.0,0 STARLINK-5472,1 54767U 22175K   23088.51361191  .00038086  00000-0  23981-2 0  9994,2 54767  53.2163 195.2122 0001106  70.5954 289.5158 15.08841818 15290,6917.875,95.437,540.505,538.975,0.0
54767.0,STARLINK-5472,PAYLOAD,2023-03-29 13:54:59,15.08842304,0.0001144,53.2166,194.9148,71.0338,289.0778,0.0026417,0.00042008,0.0,0 STARLINK-5472,1 54767U 22175K   23088.57985316  .00042008  00000-0  26417-2 0  9997,2 54767  53.2166 194.9148 0001144  71.0338 289.0778 15.08842304 17466,6917.873,95.437,540.53,538.947,0.0
54767.0,STARLINK-5472,PAYLOAD,2023-03-30 05:48:51,15.08843475,0.0001531,53.2176,191.9427,94.8106,265.3061,0.001421,0.00022402,0.0,0 STARLINK-5472,1 54767U 22175K   23089.24225943  .00022402  00000-0  14210-2 0  9999,2 54767  53.2176 191.9427 0001531  94.8106 265.3061 15.08843475 15404,6917.87,95.437,540.794,538.676,0.0
54767.0,STARLINK-5472,PAYLOAD,2023-03-30 13:45:46,15.08837302,0.0001392,53.2175,190.4567,88.2285,271.8867,0.00028498,4.25e-05,0.0,0 STARLINK-5472,1 54767U 22175K   23089.57345960  .00004250  00000-0  28498-3 0  9992,2 54767  53.2175 190.4567 0001392  88.2285 271.8867 15.08837302 17615,6917.889,95.438,540.717,538.791,0.0
54767.0,STARLINK-5472,PAYLOAD,2023-03-31 15:11:57,15.08849283,0.0001342,53.2171,185.7002,85.0048,275.1097,0.00046011,7.044e-05,0.0,0 STARLINK-5472,1 54767U 22175K   23090.63330174  .00007044  00000-0  46011-3 0  9997,2 54767  53.2171 185.7002 0001342  85.0048 275.1097 15.08849283 15610,6917.852,95.437,540.645,538.789,0.0
54767.0,STARLINK-5472,PAYLOAD,2023-04-01 07:05:48,15.08837008,0.0001455,53.2171,182.7233,95.5815,264.5343,9.9932e-05,1.303e-05,0.0,0 STARLINK-5472,1 54767U 22175K   23091.29570597  .00001303  00000-0  99932-4 0  9998,2 54767  53.2171 182.7233 0001455  95.5815 264.5343 15.08837008 15715,6917.89,95.438,540.761,538.748,0.0
54767.0,STARLINK-5472,PAYLOAD,2023-04-01 13:27:21,15.08841825,0.0001474,53.2178,181.5344,97.6018,262.5141,0.00023382,3.435e-05,0.0,0 STARLINK-5472,1 54767U 22175K   23091.56066520  .00003435  00000-0  23382-3 0  9997,2 54767  53.2178 181.5344 0001474  97.6018 262.5141 15.08841825 17911,6917.875,95.437,540.76,538.72,0.0
54767.0,STARLINK-5472,PAYLOAD,2023-04-01 15:02:44,15.08845049,0.0001665,53.2179,181.237,104.7952,255.3224,0.00032952,4.961e-05,0.0,0 STARLINK-5472,1 54767U 22175K   23091.62690515  .00004961  00000-0  32952-3 0  9999,2 54767  53.2179 181.2370 0001665 104.7952 255.3224 15.08845049 17922,6917.865,95.437,540.882,538.578,0.0
54767.0,STARLINK-5472,PAYLOAD,2023-04-02 13:18:08,15.08856783,0.0001397,53.2171,177.0742,84.4723,275.6429,0.00046714,7.158e-05,0.0,0 STARLINK-5472,1 54767U 22175K   23092.55426098  .00007158  00000-0  46714-3 0  9997,2 54767  53.2171 177.0742 0001397  84.4723 275.6429 15.08856783 15907,6917.829,95.436,540.661,538.728,0.0
54767.0,STARLINK-5472,PAYLOAD,2023-04-03 05:11:59,15.08844517,0.0001801,53.2173,174.1009,76.8356,283.2837,0.00015087,2.114e-05,0.0,0 STARLINK-5472,1 54767U 22175K   23093.21666566  .00002114  00000-0  15087-3 0  9993,2 54767  53.2173 174.1009 0001801  76.8356 283.2837 15.08844517 16002,6917.867,95.437,540.977,538.486,0.0
54767.0,STARLINK-5472,PAYLOAD,2023-04-03 11:33:32,15.08838575,0.0001595,53.2181,172.9113,75.5344,284.5825,3.2666e-05,2.32e-06,0.0,0 STARLINK-5472,1 54767U 22175K   23093.48162688  .00000232  00000-0  32666-4 0  9990,2 54767  53.2181 172.9113 0001595  75.5344 284.5825 15.08838575 18208,6917.885,95.438,540.853,538.646,0.0
54767.0,STARLINK-5472,PAYLOAD,2023-04-03 14:44:18,15.0884259,0.000164,53.2166,172.3147,81.5105,278.6073,9.6493e-05,1.248e-05,0.0,0 STARLINK-5472,1 54767U 22175K   23093.61410570  .00001248  00000-0  96493-4 0  9997,2 54767  53.2166 172.3147 0001640  81.5105 278.6073 15.08842590 18228,6917.872,95.437,540.872,538.603,0.0
54767.0,STARLINK-5472,PAYLOAD,2023-04-04 11:24:19,15.08850061,0.0001508,53.216,168.4491,80.0007,280.1155,0.00022588,3.31e-05,0.0,0 STARLINK-5472,1 54767U 22175K   23094.47522172  .00003310  00000-0  22588-3 0  9999,2 54767  53.2160 168.4491 0001508  80.0007 280.1155 15.08850061 16193,6917.85,95.437,540.758,538.671,0.0
54767.0,STARLINK-5472,PAYLOAD,2023-04-05 04:53:33,15.08845015,0.0001786,53.2182,165.1823,78.5251,281.5941,0.00019889,2.879e-05,0.0,0 STARLINK-5472,1 54767U 22175K   23095.20386414  .00002879  00000-0  19889-3 0  9997,2 54767  53.2182 165.1823 0001786  78.5251 281.5941 15.08845015 16305,6917.865,95.437,540.966,538.495,0.0
54767.0,STARLINK-5472,PAYLOAD,2023-04-05 11:15:06,15.0884188,0.00014,53.218,163.9913,71.5141,288.6003,0.0001055,1.392e-05,0.0,0 STARLINK-5472,1 54767U 22175K   23095.46882481  .00001392  00000-0  10550-3 0  9995,2 54767  53.2180 163.9913 0001400  71.5141 288.6003 15.08841880 18500,6917.875,95.437,540.708,538.771,0.0
54767.0,STARLINK-5472,PAYLOAD,2023-04-06 09:30:30,15.08835643,0.0001248,53.2176,159.8283,82.8079,277.3055,0.00022066,3.225e-05,0.0,0 STARLINK-5472,1 54767U 22175K   23096.39618829  .00003225  00000-0  22066-3 0  9993,2 54767  53.2176 159.8283 0001248  82.8079 277.3055 15.08835643 16481,6917.894,95.438,540.622,538.895,0.0
54767.0,STARLINK-5472,PAYLOAD,2023-04-06 20:38:12,15.08838964,0.0001488,53.2177,157.7468,91.0591,269.0571,6.7733e-05,7.9e-06,0.0,0 STARLINK-5472,1 54767U 22175K   23096.85986648  .00000790  00000-0  67733-4 0  9996,2 54767  53.2177 157.7468 0001488  91.0591 269.0571 15.08838964 18719,6917.884,95.438,540.778,538.719,0.0
54767.0,STARLINK-5472,PAYLOAD,2023-04-07 12:32:03,15.08840598,0.000141,53.2182,154.7756,86.8006,273.3147,0.00013328,1.834e-05,0.0,0 STARLINK-5472,1 54767U 22175K   23097.52226741  .00001834  00000-0  13328-3 0  9992,2 54767  53.2182 154.7756 0001410  86.8006 273.3147 15.08840598 16654,6917.879,95.438,540.719,538.768,0.0
54767.0,STARLINK-5472,PAYLOAD,2023-04-08 10:47:28,15.08838192,0.0001344,53.219,150.6097,93.4127,266.7019,6.3536e-05,7.23e-06,0.0,0 STARLINK-5472,1 54767U 22175K   23098.44963166  .00000723  00000-0  63536-4 0  9996,2 54767  53.2190 150.6097 0001344  93.4127 266.7019 15.08838192 16796,6917.886,95.438,540.681,538.821,0.0
54767.0,STARLINK-5472,PAYLOAD,2023-04-09 04:16:41,15.08857211,5.92e-05,53.2187,147.338,89.0766,271.0294,-0.00014835,-2.649e-05,0.0,0 STARLINK-5472,1 54767U 22175K   23099.17826089 -.00002649  00000-0 -14835-3 0  9997,2 54767  53.2187 147.3380 0000592  89.0766 271.0294 15.08857211 16904,6917.828,95.436,540.102,539.283,0.0
54767.0,STARLINK-5472,PAYLOAD,2023-04-09 10:38:14,15.08844646,0.000127,53.2186,146.1486,91.3965,268.7173,0.00010005,1.305e-05,0.0,0 STARLINK-5472,1 54767U 22175K   23099.44322672  .00001305  00000-0  10005-3 0  9997,2 54767  53.2186 146.1486 0001270  91.3965 268.7173 15.08844646 16949,6917.866,95.437,540.61,538.853,0.0
54767.0,STARLINK-5472,PAYLOAD,2023-04-09 20:10:34,15.08838962,0.0001326,53.2186,144.3642,78.1318,281.9822,6.7323e-05,7.84e-06,0.0,0 STARLINK-5472,1 54767U 22175K   23099.84067186  .00000784  00000-0  67323-4 0  9993,2 54767  53.2186 144.3642 0001326  78.1318 281.9822 15.08838962 17000,6917.884,95.438,540.666,538.831,0.0
54767.0,STARLINK-5472,PAYLOAD,2023-04-10 08:53:40,15.08827317,0.0001391,53.2186,141.9858,82.1455,277.9695,-7.7969e-06,-4.12e-06,0.0,0 STARLINK-5472,1 54767U 22175K   23100.37060408 -.00000412  00000-0 -77969-5 0  9992,2 54767  53.2186 141.9858 0001391  82.1455 277.9695 15.08827317 17084,6917.919,95.438,540.746,538.822,0.0
